start=new Date('2023-01-19T00:00:00.000Z').valueOf();
sats=[{"PERIOD":"95.437","MEAN_ANOMALY":"261.0859","SITE":"AFETR","TLE_LINE1":"1 53622U 22104AL  23018.57332263  .00013298  00000-0  85179-3 0  9998","REF_FRAME":"TEME","DECAY_DATE":null,"MEAN_MOTION":"15.08850584","OBJECT_ID":"2022-104AL","EPHEMERIS_TYPE":"0","RA_OF_ASC_NODE":"339.0097","MEAN_MOTION_DOT":"0.00013298","MEAN_MOTION_DDOT":"0.0000000000000","FILE":"3753951","ARG_OF_PERICENTER":"99.0318","OBJECT_NAME":"STARLINK-4568","NORAD_CAT_ID":"53622","TLE_LINE2":"2 53622  53.2189 339.0097 0001633  99.0318 261.0859 15.08850584 22720","MEAN_ELEMENT_THEORY":"SGP4","ECCENTRICITY":"0.00016330","REV_AT_EPOCH":"2272","GP_ID":"223425346","RCS_SIZE":"LARGE","CLASSIFICATION_TYPE":"U","COUNTRY_CODE":"US","LAUNCH_DATE":"2022-08-28","SEMIMAJOR_AXIS":"6917.848","EPOCH":"2023-01-18T13:45:35.075232","APOAPSIS":"540.843","BSTAR":"0.00085179000000","OBJECT_TYPE":"PAYLOAD","CENTER_NAME":"EARTH","PERIAPSIS":"538.583","INCLINATION":"53.2189","ELEMENT_SET_NO":"999","TIME_SYSTEM":"UTC"},{"ELEMENT_SET_NO":"999","TIME_SYSTEM":"UTC","INCLINATION":"53.2201","APOAPSIS":"540.453","BSTAR":"-0.00001375800000","OBJECT_TYPE":"PAYLOAD","PERIAPSIS":"538.906","CENTER_NAME":"EARTH","LAUNCH_DATE":"2022-08-28","EPOCH":"2023-01-18T06:03:09.658368","SEMIMAJOR_AXIS":"6917.814","MEAN_ELEMENT_THEORY":"SGP4","TLE_LINE2":"2 53623  53.2201 340.5500 0001118  88.2314 271.8806 15.08861607 22679","ECCENTRICITY":"0.00011180","NORAD_CAT_ID":"53623","OBJECT_NAME":"STARLINK-4573","COUNTRY_CODE":"US","REV_AT_EPOCH":"2267","GP_ID":"223424143","RCS_SIZE":"LARGE","CLASSIFICATION_TYPE":"U","MEAN_MOTION_DDOT":"0.0000000000000","FILE":"3753951","ARG_OF_PERICENTER":"88.2314","RA_OF_ASC_NODE":"340.5500","EPHEMERIS_TYPE":"0","MEAN_MOTION_DOT":"-0.00000507","DECAY_DATE":null,"REF_FRAME":"TEME","MEAN_MOTION":"15.08861607","TLE_LINE1":"1 53623U 22104AM  23018.25219512 -.00000507  00000-0 -13758-4 0  9991","OBJECT_ID":"2022-104AM","PERIOD":"95.436","SITE":"AFETR","MEAN_ANOMALY":"271.8806"},{"NORAD_CAT_ID":"53624","OBJECT_NAME":"STARLINK-4596","ECCENTRICITY":"0.00013550","TLE_LINE2":"2 53624  53.2176 340.4810 0001355  68.3157 291.7979 15.08875581 22679","MEAN_ELEMENT_THEORY":"SGP4","RCS_SIZE":"LARGE","GP_ID":"223424384","CLASSIFICATION_TYPE":"U","REV_AT_EPOCH":"2267","COUNTRY_CODE":"US","LAUNCH_DATE":"2022-08-28","SEMIMAJOR_AXIS":"6917.772","EPOCH":"2023-01-18T05:47:16.386432","APOAPSIS":"540.574","PERIAPSIS":"538.699","OBJECT_TYPE":"PAYLOAD","CENTER_NAME":"EARTH","BSTAR":"0.00240760000000","INCLINATION":"53.2176","TIME_SYSTEM":"UTC","ELEMENT_SET_NO":"999","PERIOD":"95.435","MEAN_ANOMALY":"291.7979","SITE":"AFETR","TLE_LINE1":"1 53624U 22104AN  23018.24116188  .00038275  00000-0  24076-2 0  9990","MEAN_MOTION":"15.08875581","DECAY_DATE":null,"REF_FRAME":"TEME","OBJECT_ID":"2022-104AN","EPHEMERIS_TYPE":"0","RA_OF_ASC_NODE":"340.4810","MEAN_MOTION_DOT":"0.00038275","MEAN_MOTION_DDOT":"0.0000000000000","ARG_OF_PERICENTER":"68.3157","FILE":"3753951"},{"CENTER_NAME":"EARTH","OBJECT_TYPE":"PAYLOAD","PERIAPSIS":"538.672","BSTAR":"0.00131750000000","APOAPSIS":"540.603","INCLINATION":"53.2195","TIME_SYSTEM":"UTC","ELEMENT_SET_NO":"999","GP_ID":"223425586","RCS_SIZE":"LARGE","CLASSIFICATION_TYPE":"U","REV_AT_EPOCH":"2272","COUNTRY_CODE":"US","NORAD_CAT_ID":"53625","OBJECT_NAME":"STARLINK-4603","ECCENTRICITY":"0.00013960","TLE_LINE2":"2 53625  53.2195 339.0192 0001396  70.9671 289.1472 15.08875347 22728","MEAN_ELEMENT_THEORY":"SGP4","SEMIMAJOR_AXIS":"6917.772","EPOCH":"2023-01-18T13:49:30.184320","LAUNCH_DATE":"2022-08-28","MEAN_MOTION_DOT":"0.00020762","EPHEMERIS_TYPE":"0","RA_OF_ASC_NODE":"339.0192","ARG_OF_PERICENTER":"70.9671","FILE":"3753951","MEAN_MOTION_DDOT":"0.0000000000000","MEAN_ANOMALY":"289.1472","SITE":"AFETR","PERIOD":"95.435","OBJECT_ID":"2022-104AP","TLE_LINE1":"1 53625U 22104AP  23018.57604380  .00020762  00000-0  13175-2 0  9993","MEAN_MOTION":"15.08875347","DECAY_DATE":null,"REF_FRAME":"TEME"},{"PERIOD":"95.436","MEAN_ANOMALY":"285.3386","SITE":"AFETR","TLE_LINE1":"1 53626U 22104AQ  23018.29633752 -.00002888  00000-0 -16336-3 0  9992","DECAY_DATE":null,"REF_FRAME":"TEME","MEAN_MOTION":"15.08858228","OBJECT_ID":"2022-104AQ","EPHEMERIS_TYPE":"0","RA_OF_ASC_NODE":"340.1300","MEAN_MOTION_DOT":"-0.00002888","MEAN_MOTION_DDOT":"0.0000000000000","FILE":"3753951","ARG_OF_PERICENTER":"74.7790","NORAD_CAT_ID":"53626","OBJECT_NAME":"STARLINK-4554","TLE_LINE2":"2 53626  53.2181 340.1300 0001658  74.7790 285.3386 15.08858228 22690","MEAN_ELEMENT_THEORY":"SGP4","ECCENTRICITY":"0.00016580","REV_AT_EPOCH":"2269","RCS_SIZE":"LARGE","GP_ID":"223425827","CLASSIFICATION_TYPE":"U","COUNTRY_CODE":"US","LAUNCH_DATE":"2022-08-28","SEMIMAJOR_AXIS":"6917.825","EPOCH":"2023-01-18T07:06:43.561728","APOAPSIS":"540.837","BSTAR":"-0.00016336000000","OBJECT_TYPE":"PAYLOAD","CENTER_NAME":"EARTH","PERIAPSIS":"538.543","INCLINATION":"53.2181","ELEMENT_SET_NO":"999","TIME_SYSTEM":"UTC"},{"ARG_OF_PERICENTER":"87.4196","FILE":"3753951","MEAN_MOTION_DDOT":"0.0000000000000","MEAN_MOTION_DOT":"-0.00000619","EPHEMERIS_TYPE":"0","RA_OF_ASC_NODE":"340.1609","OBJECT_ID":"2022-104AR","MEAN_MOTION":"15.08861459","DECAY_DATE":null,"REF_FRAME":"TEME","TLE_LINE1":"1 53627U 22104AR  23018.30369767 -.00000619  00000-0 -20797-4 0  9994","SITE":"AFETR","MEAN_ANOMALY":"272.6963","PERIOD":"95.436","TIME_SYSTEM":"UTC","ELEMENT_SET_NO":"999","INCLINATION":"53.2193","OBJECT_TYPE":"PAYLOAD","PERIAPSIS":"538.672","CENTER_NAME":"EARTH","BSTAR":"-0.00002079700000","APOAPSIS":"540.688","SEMIMAJOR_AXIS":"6917.815","EPOCH":"2023-01-18T07:17:19.478688","LAUNCH_DATE":"2022-08-28","COUNTRY_CODE":"US","GP_ID":"223424625","CLASSIFICATION_TYPE":"U","RCS_SIZE":"LARGE","REV_AT_EPOCH":"2269","ECCENTRICITY":"0.00014570","TLE_LINE2":"2 53627  53.2193 340.1609 0001457  87.4196 272.6963 15.08861459 22694","MEAN_ELEMENT_THEORY":"SGP4","NORAD_CAT_ID":"53627","OBJECT_NAME":"STARLINK-4595"},{"LAUNCH_DATE":"2022-08-28","SEMIMAJOR_AXIS":"6917.773","EPOCH":"2023-01-18T14:53:03.191712","OBJECT_NAME":"STARLINK-4600","NORAD_CAT_ID":"53628","ECCENTRICITY":"0.00016410","MEAN_ELEMENT_THEORY":"SGP4","TLE_LINE2":"2 53628  53.2149 338.5968 0001641 101.5270 258.5906 15.08875033 22740","RCS_SIZE":"LARGE","GP_ID":"223457561","CLASSIFICATION_TYPE":"U","REV_AT_EPOCH":"2274","COUNTRY_CODE":"US","INCLINATION":"53.2149","TIME_SYSTEM":"UTC","ELEMENT_SET_NO":"999","APOAPSIS":"540.774","CENTER_NAME":"EARTH","OBJECT_TYPE":"PAYLOAD","PERIAPSIS":"538.503","BSTAR":"0.00158690000000","TLE_LINE1":"1 53628U 22104AS  23018.62017583  .00025082  00000-0  15869-2 0  9997","MEAN_MOTION":"15.08875033","DECAY_DATE":null,"REF_FRAME":"TEME","OBJECT_ID":"2022-104AS","PERIOD":"95.435","MEAN_ANOMALY":"258.5906","SITE":"AFETR","MEAN_MOTION_DDOT":"0.0000000000000","ARG_OF_PERICENTER":"101.5270","FILE":"3754254","RA_OF_ASC_NODE":"338.5968","EPHEMERIS_TYPE":"0","MEAN_MOTION_DOT":"0.00025082"},{"BSTAR":"-0.00007776400000","OBJECT_TYPE":"PAYLOAD","PERIAPSIS":"538.616","CENTER_NAME":"EARTH","APOAPSIS":"540.773","INCLINATION":"53.2179","ELEMENT_SET_NO":"999","TIME_SYSTEM":"UTC","REV_AT_EPOCH":"2269","CLASSIFICATION_TYPE":"U","GP_ID":"223425106","RCS_SIZE":"LARGE","COUNTRY_CODE":"US","NORAD_CAT_ID":"53629","OBJECT_NAME":"STARLINK-4602","TLE_LINE2":"2 53629  53.2179 340.1448 0001559  76.7555 283.3611 15.08856518 22693","MEAN_ELEMENT_THEORY":"SGP4","ECCENTRICITY":"0.00015590","EPOCH":"2023-01-18T07:12:01.473984","SEMIMAJOR_AXIS":"6917.830","LAUNCH_DATE":"2022-08-28","MEAN_MOTION_DOT":"-0.00001526","RA_OF_ASC_NODE":"340.1448","EPHEMERIS_TYPE":"0","FILE":"3753951","ARG_OF_PERICENTER":"76.7555","MEAN_MOTION_DDOT":"0.0000000000000","MEAN_ANOMALY":"283.3611","SITE":"AFETR","PERIOD":"95.437","OBJECT_ID":"2022-104AT","TLE_LINE1":"1 53629U 22104AT  23018.30001706 -.00001526  00000-0 -77764-4 0  9996","DECAY_DATE":null,"REF_FRAME":"TEME","MEAN_MOTION":"15.08856518"},{"MEAN_MOTION_DDOT":"0.0000000000000","FILE":"3753951","ARG_OF_PERICENTER":"110.5962","RA_OF_ASC_NODE":"330.6619","EPHEMERIS_TYPE":"0","MEAN_MOTION_DOT":"-0.00001224","TLE_LINE1":"1 53630U 22104AU  23018.26785790 -.00001224  00000-0 -58778-4 0  9994","DECAY_DATE":null,"REF_FRAME":"TEME","MEAN_MOTION":"15.08865489","OBJECT_ID":"2022-104AU","PERIOD":"95.436","MEAN_ANOMALY":"249.5168","SITE":"AFETR","INCLINATION":"53.2208","ELEMENT_SET_NO":"999","TIME_SYSTEM":"UTC","APOAPSIS":"540.555","BSTAR":"-0.00005877800000","CENTER_NAME":"EARTH","OBJECT_TYPE":"PAYLOAD","PERIAPSIS":"538.780","LAUNCH_DATE":"2022-08-28","SEMIMAJOR_AXIS":"6917.802","EPOCH":"2023-01-18T06:25:42.922560","NORAD_CAT_ID":"53630","OBJECT_NAME":"STARLINK-4598","TLE_LINE2":"2 53630  53.2208 330.6619 0001283 110.5962 249.5168 15.08865489 22996","MEAN_ELEMENT_THEORY":"SGP4","ECCENTRICITY":"0.00012830","REV_AT_EPOCH":"2299","GP_ID":"223425347","RCS_SIZE":"LARGE","CLASSIFICATION_TYPE":"U","COUNTRY_CODE":"US"},{"REF_FRAME":"TEME","DECAY_DATE":null,"MEAN_MOTION":"15.08850727","TLE_LINE1":"1 53631U 22104AV  23018.62385399  .00001539  00000-0  11471-3 0  9991","OBJECT_ID":"2022-104AV","PERIOD":"95.437","SITE":"AFETR","MEAN_ANOMALY":"274.9048","MEAN_MOTION_DDOT":"0.0000000000000","FILE":"3754254","ARG_OF_PERICENTER":"85.2093","RA_OF_ASC_NODE":"338.6180","EPHEMERIS_TYPE":"0","MEAN_MOTION_DOT":"0.00001539","LAUNCH_DATE":"2022-08-28","SEMIMAJOR_AXIS":"6917.848","EPOCH":"2023-01-18T14:58:20.984736","MEAN_ELEMENT_THEORY":"SGP4","TLE_LINE2":"2 53631  53.2164 338.6180 0001309  85.2093 274.9048 15.08850727 22742","ECCENTRICITY":"0.00013090","NORAD_CAT_ID":"53631","OBJECT_NAME":"STARLINK-4599","COUNTRY_CODE":"US","REV_AT_EPOCH":"2274","RCS_SIZE":"LARGE","GP_ID":"223458797","CLASSIFICATION_TYPE":"U","ELEMENT_SET_NO":"999","TIME_SYSTEM":"UTC","INCLINATION":"53.2164","APOAPSIS":"540.618","BSTAR":"0.00011471000000","OBJECT_TYPE":"PAYLOAD","CENTER_NAME":"EARTH","PERIAPSIS":"538.807"}];
